- !!map
  id:                 22
  name:               Hale
  radius:             6000
  mass:               12165929310938976
  stdGravParam:       811990.62
  soi:                41000
  orbit:
    semiMajorAxis:    10488231
    eccentricity:     0
    inclination:      1
    argOfPeriapsis:   0
    ascNodeLongitude: 55
  meanAnomaly0:       0
  epoch:              0
  orbiting:           21
  color:              0xefe68c

- !!map
  id:                 23
  name:               Ovok
  radius:             26000
  mass:               198651406139969730
  stdGravParam:       13258590.799999999
  soi:                94000
  orbit:
    semiMajorAxis:    12169413
    eccentricity:     0.01
    inclination:      1.5
    argOfPeriapsis:   0
    ascNodeLongitude: 55
  meanAnomaly0:       1.72
  epoch:              751.7
  orbiting:           21
  color:              0xafc3dd

- !!map
  id:                 24
  name:               Slate
  radius:             540000
  mass:               2.9648898684206585e+22
  stdGravParam:       1978856444880
  soi:                9598158.646011835
  orbit:
    semiMajorAxis:    42592946
    eccentricity:     0.04
    inclination:      2.3
    argOfPeriapsis:   0
    ascNodeLongitude: 55
  meanAnomaly0:       1.1
  epoch:              1343.91
  orbiting:           21
  color:              0xd1b38c

- !!map
  id:                 25
  name:               Tekto
  radius:             280000
  atmosphereAlt:      95000.0
  mass:               2.883313492171464e+21
  stdGravParam:       192440992408
  soi:                8637005.195444612
  orbit:
    semiMajorAxis:    97355304
    eccentricity:     0.028
    inclination:      9.4
    argOfPeriapsis:   0
    ascNodeLongitude: 55
  meanAnomaly0:       2.1
  epoch:              1275.12
  orbiting:           21
  color:              0x4ce5a5

- !!map
  id:                 26
  name:               Geito
  radius:             1000
  mass:               44079454025141.22
  stdGravParam:       2941.995
  soi:                221638.83004387212
  orbit:
    semiMajorAxis:    153396400000
    eccentricity:     0.96714
    inclination:      102.26
    argOfPeriapsis:   161.33
    ascNodeLongitude: 58.42
  meanAnomaly0:       218.38
  epoch:              1
  orbiting:           0
  color:              0x3c3c3c

- !!map
  id:                 27
  name:               Crokslev
  radius:             32500
  mass:               3879910276171284000
  stdGravParam:       258956851.56249997
  soi:                32497634.809634704
  orbit:
    semiMajorAxis:    236693800000
    eccentricity:     0.03
    inclination:      23.382
    argOfPeriapsis:   242.9
    ascNodeLongitude: 300.43
  meanAnomaly0:       77.67
  epoch:              1
  orbiting:           0
  color:              0x808080

- !!map
  id:                 28
  name:               Urlum
  radius:             2177000
  atmosphereAlt:      325000.0
  mass:               1.7896369311579417e+23
  stdGravParam:       11944573769627.45
  soi:                2562226897.2821903
  orbit:
    semiMajorAxis:    254317012787
    eccentricity:     0.045214674
    inclination:      0.64
    argOfPeriapsis:   0
    ascNodeLongitude: 61
  meanAnomaly0:       5.59607362747192
  epoch:              422.539999999906
  orbiting:           0
  color:              0x48d1cc

- !!map
  id:                 29
  name:               Priax
  radius:             74000
  mass:               50689608950751390000
  stdGravParam:       3383176570.2
  soi:                446767.6019786148
  orbit:
    semiMajorAxis:    11727895
    eccentricity:     0.0015
    inclination:      2.5
    argOfPeriapsis:   0
    ascNodeLongitude: 40
  meanAnomaly0:       1.5209
  epoch:              878.1399
  orbiting:           28
  color:              0x6b6a66

- !!map
  id:                 30
  name:               Polta
  radius:             220000
  mass:               1.3511821973839953e+21
  stdGravParam:       90181953400
  soi:                1661114.8530520673
  orbit:
    semiMajorAxis:    11727895
    eccentricity:     0.0015
    inclination:      2.45
    argOfPeriapsis:   60
    ascNodeLongitude: 40
  meanAnomaly0:       1.5209
  epoch:              878.1399
  orbiting:           28
  color:              0x7a9f93

- !!map
  id:                 31
  name:               Wal
  radius:             370000
  mass:               7.44252194911826e+21
  stdGravParam:       496736242450
  soi:                18933504.68477647
  orbit:
    semiMajorAxis:    67553668
    eccentricity:     0.023
    inclination:      1.9
    argOfPeriapsis:   0
    ascNodeLongitude: 40
  meanAnomaly0:       2.9615
  epoch:              1078.179
  orbiting:           28
  color:              0xb89963

- !!map
  id:                 32
  name:               Tal
  radius:             22000
  mass:               3200168362225252400
  stdGravParam:       213588837
  soi:                139966.65125981288
  orbit:
    semiMajorAxis:    3109163
    eccentricity:     0
    inclination:      1.9
    argOfPeriapsis:   0
    ascNodeLongitude: 40
  meanAnomaly0:       0
  epoch:              1179.579
  orbiting:           31
  color:              0x665b4a

- !!map
  id:                 33
  name:               Neidon
  radius:             2145000
  atmosphereAlt:      260000.0
  mass:               2.1227516788730655e+23
  stdGravParam:       14167881530302.5
  soi:                4415665622.289967
  orbit:
    semiMajorAxis:    409355191706
    eccentricity:     0.0127567
    inclination:      1.27
    argOfPeriapsis:   0
    ascNodeLongitude: 259
  meanAnomaly0:       2.27167344093323
  epoch:              99.6799999999973
  orbiting:           0
  color:              0x6959cd

- !!map
  id:                 34
  name:               Thatmo
  radius:             286000
  atmosphereAlt:      35000.0
  mass:               2.7882711365806153e+21
  stdGravParam:       186097580468.8
  soi:                5709379.088531882
  orbit:
    semiMajorAxis:    32300895
    eccentricity:     0.00043
    inclination:      161.1
    argOfPeriapsis:   0
    ascNodeLongitude: 66
  meanAnomaly0:       2.04731106758118
  epoch:              1953406.32967385
  orbiting:           33
  color:              0xe6e6f9

- !!map
  id:                 35
  name:               Nissee
  radius:             30000
  mass:               5950726293394064000
  stdGravParam:       397169325
  soi:                7366476.635255131
  orbit:
    semiMajorAxis:    487743514
    eccentricity:     0.72
    inclination:      29.56
    argOfPeriapsis:   0
    ascNodeLongitude: 66
  meanAnomaly0:       2.04731106758118
  epoch:              1953406.32967385
  orbiting:           33
  color:              0xd1b38c

- !!map
  id:                 36
  name:               Plock
  radius:             189000
  mass:               776784007434487600000
  stdGravParam:       51844895008.2
  soi:                612754258.4676155
  orbit:
    semiMajorAxis:    535833706086
    eccentricity:     0.26
    inclination:      6.15
    argOfPeriapsis:   50
    ascNodeLongitude: 260
  meanAnomaly0:       0
  epoch:              213
  orbiting:           0
  color:              0xNaN

- !!map
  id:                 37
  name:               Karen
  radius:             85050
  mass:               70146744995688686000
  stdGravParam:       4681804201.24725
  soi:                939354.3242775212
  orbit:
    semiMajorAxis:    2457800
    eccentricity:     0
    inclination:      0
    argOfPeriapsis:   50
    ascNodeLongitude: 260
  meanAnomaly0:       0
  epoch:              213
  orbiting:           36
  color:              0xNaN

- !!map
  id:                 38
  name:               Havous
  radius:             116666
  mass:               285982596742195800000
  stdGravParam:       19087336454.364372
  soi:                496491495.4764387
  orbit:
    semiMajorAxis:    647500000000
    eccentricity:     0.19
    inclination:      13.21
    argOfPeriapsis:   237.56
    ascNodeLongitude: 122.11
  meanAnomaly0:       226.6
  epoch:              6
  orbiting:           0
  color:              0xcae8e3

- !!map
  id:                 39
  name:               Kal
  radius:             3000
  mass:               1124026077641100.8
  stdGravParam:       75020.87249999998
  soi:                20000
  orbit:
    semiMajorAxis:    406750
    eccentricity:     0.001
    inclination:      0.02
    argOfPeriapsis:   34
    ascNodeLongitude: 245
  meanAnomaly0:       12
  epoch:              6
  orbiting:           38
  color:              0x333333

- !!map
  id:                 40
  name:               KiKi
  radius:             5320
  mass:               6653623144539503
  stdGravParam:       444082.76953600004
  soi:                49438.1388104505
  orbit:
    semiMajorAxis:    3526750
    eccentricity:     0.11
    inclination:      11.45
    argOfPeriapsis:   123
    ascNodeLongitude: 256
  meanAnomaly0:       85
  epoch:              6
  orbiting:           38
  color:              0x544040

- !!map
  id:                 41
  name:               Mracksis
  radius:             71500
  mass:               90889226165478030000
  stdGravParam:       6066219621.9625
  soi:                329463503.30549496
  orbit:
    semiMajorAxis:    679620000000
    eccentricity:     0.16126
    inclination:      7.5
    argOfPeriapsis:   294.834
    ascNodeLongitude: 122.11
  meanAnomaly0:       165.514
  epoch:              6
  orbiting:           0
  color:              0xbc495

- !!map
  id:                 42
  name:               Flake
  radius:             2000
  mass:               176317816100564.88
  stdGravParam:       11767.98
  soi:                20000
  orbit:
    semiMajorAxis:    659162
    eccentricity:     0.05
    inclination:      5
    argOfPeriapsis:   213
    ascNodeLongitude: 12
  meanAnomaly0:       45
  epoch:              6
  orbiting:           41
  color:              0xb2cbce

